2022-121B               
1 53949U 22121B   22290.56567286  .00006354  00000+0  31379-3 0  9991
2 53949  97.4520 310.8951 0011197 193.9228 320.4364 15.18167326  3127
2022-121C               
1 53950U 22121C   22290.56176186  .00005457  00000+0  26807-3 0  9991
2 53950  97.4549 310.9074 0012631 200.8886 311.1021 15.18405767  3120
SELFIESAT               
1 53951U 22057BA  22289.81099195  .00012415  00000+0  69502-3 0  9991
2 53951  97.5272  42.8131 0011433 105.0039 255.2458 15.13520770 21786
SES-20                  
1 53960U 22123A   22289.29848302 -.00000033  00000+0  00000+0 0  9997
2 53960   1.3928 167.8567 0062334 105.3926  70.4236  1.01844513   113
SES-21                  
1 53961U 22123B   22289.15564880 -.00000141  00000+0  00000+0 0  9999
2 53961   1.2316 167.1340 0235399 282.0458 208.2015  1.05592830   114
ATLAS 5 CENTAUR R/B     
1 53962U 22123C   22289.28121460 -.00000150  00000+0  00000+0 0  9997
2 53962   1.8705 165.9704 0290150 199.1993 160.2234  1.07594345   138
CREW DRAGON 5           
1 53963U 22124A   22289.53130847  .00017320  00000+0  30961-3 0  9995
2 53963  51.6422  95.4091 0003481 308.6292 118.4789 15.50106123364007
STARLINK-4633           
1 53964U 22125A   22290.50001157  .00010292  00000+0  77634-4 0  9997
2 53964  53.2196  34.5252 0001942 344.7998 283.7138 15.73207328  2200
STARLINK-4578           
1 53965U 22125B   22290.16667824 -.00058841  00000+0 -41662-3 0  9994
2 53965  53.2189  36.1717 0001842  25.6505 154.5702 15.73261616  2151
STARLINK-4635           
1 53966U 22125C   22290.50001157 -.00178066  00000+0 -12845-2 0  9996
2 53966  53.2185  34.5193 0002073  33.7994 235.8119 15.73320261  2200
STARLINK-4634           
1 53967U 22125D   22290.16667824  .00004291  00000+0  35010-4 0  9995
2 53967  53.2184  36.1681 0001786  33.6609 147.7314 15.73179737  2154
STARLINK-4629           
1 53968U 22125E   22290.50001157  .00056872  00000+0  40724-3 0  9994
2 53968  53.2199  34.5182 0002181  28.1891 243.9429 15.73178906  2200
STARLINK-4468           
1 53969U 22125F   22290.16667824 -.00008415  00000+0 -55595-4 0  9991
2 53969  53.2190  36.1681 0002109  24.8454 157.1158 15.73196832  2159
STARLINK-4567           
1 53970U 22125G   22290.50001157 -.00130912  00000+0 -93911-3 0  9993
2 53970  53.2180  34.5097 0001723  28.8550 244.3352 15.73292496  2209
STARLINK-4639           
1 53971U 22125H   22290.50001157  .00061362  00000+0  43964-3 0  9997
2 53971  53.2182  34.5136 0001987  30.0549 241.4585 15.73135021  2207
STARLINK-5157           
1 53972U 22125J   22290.16667824  .00019405  00000+0  14216-3 0  9998
2 53972  53.2192  36.1612 0001754  33.1859 152.1738 15.73233448  2150
STARLINK-5156           
1 53973U 22125K   22290.58334491 -.00017922  00000+0 -12345-3 0  9991
2 53973  53.2177  34.0983 0002139  40.0455 344.8258 15.73214330  2212
STARLINK-5159           
1 53974U 22125L   22290.16667824 -.00555605  00000+0 -32571-2 0  9992
2 53974  53.2173  35.9580 0002152 311.9213 333.1078 15.79052181  2153
STARLINK-5137           
1 53975U 22125M   22290.50001157  .00175913  00000+0  12391-2 0  9998
2 53975  53.2180  34.5085 0002110  25.3029 248.6362 15.73059828  2203
STARLINK-5134           
1 53976U 22125N   22290.50001157 -.00045277  00000+0 -30201-3 0  9991
2 53976  53.2232  34.4824 0001144  63.5616 227.1736 15.74530169  2204
STARLINK-5094           
1 53977U 22125P   22290.50001157  .00004195  00000+0  34302-4 0  9991
2 53977  53.2173  34.5036 0002390  24.5637 251.0608 15.73201474  2206
STARLINK-5148           
1 53978U 22125Q   22290.50001157  .00167095  00000+0  11769-2 0  9991
2 53978  53.2180  34.5011 0001520  47.0801 230.3954 15.73091273  2203
STARLINK-5123           
1 53979U 22125R   22289.91667824  .00032702  00000+0  23657-3 0  9990
2 53979  53.2196  37.3969 0002116  28.6661 181.8516 15.73193253  1300
STARLINK-5133           
1 53980U 22125S   22290.50001157  .00078025  00000+0  55621-3 0  9994
2 53980  53.2177  34.4995 0002030  30.5074 247.5225 15.73156526  2202
STARLINK-5149           
1 53981U 22125T   22290.50001157  .00000389  00000+0  71930-5 0  9996
2 53981  53.2173  34.4558 0001723  35.2082 273.3690 15.73203858  2207
STARLINK-5120           
1 53982U 22125U   22290.16667824  .00179249  00000+0  12601-2 0  9997
2 53982  53.2195  36.1436 0001726  29.8045 165.1210 15.73095727  2151
STARLINK-5103           
1 53983U 22125V   22290.50001157 -.00197928  00000+0 -14367-2 0  9994
2 53983  53.2185  34.4622 0002110  31.4545 266.3266 15.73237724  2207
STARLINK-5142           
1 53984U 22125W   22290.50001157  .00125497  00000+0  88866-3 0  9991
2 53984  53.2181  34.4969 0001415  30.7106 249.1445 15.73111087  2201
STARLINK-5147           
1 53985U 22125X   22289.91667824 -.00049292  00000+0 -34798-3 0  9999
2 53985  53.2196  37.3924 0001747  25.6610 187.2076 15.73256199  1308
STARLINK-5119           
1 53986U 22125Y   22290.50001157 -.00545872  00000+0 -31850-2 0  9998
2 53986  53.2176  34.3163 0002349 305.0065  65.4837 15.79129037  2205
STARLINK-5112           
1 53987U 22125Z   22290.50001157  .00130613  00000+0  92399-3 0  9996
2 53987  53.2176  34.4977 0001631  27.4203 251.8308 15.73114722  2205
STARLINK-5113           
1 53988U 22125AA  22290.50001157  .00213898  00000+0  14995-2 0  9999
2 53988  53.2177  34.4934 0002041  32.3142 249.3659 15.73050213  2208
STARLINK-5115           
1 53989U 22125AB  22290.50001157  .00238984  00000+0  16710-2 0  9990
2 53989  53.2181  34.4956 0002443  21.8410 258.6573 15.73033211  2202
STARLINK-5075           
1 53990U 22125AC  22290.50001157  .00174210  00000+0  12260-2 0  9999
2 53990  53.2177  34.4895 0001886  31.9946 251.4443 15.73086724  2201
STARLINK-5118           
1 53991U 22125AD  22290.50001157 -.00542724  00000+0 -27574-2 0  9995
2 53991  53.2175  34.0553 0001722  33.0389 109.1543 15.82116209  2213
STARLINK-5108           
1 53992U 22125AE  22290.50001157  .00065592  00000+0  46903-3 0  9995
2 53992  53.2182  34.4874 0001909  38.7790 245.8185 15.73153900  2205
STARLINK-5121           
1 53993U 22125AF  22290.50001157  .00124344  00000+0  88062-3 0  9999
2 53993  53.2179  34.4905 0001863  41.8687 240.9673 15.73111593  2206
STARLINK-5125           
1 53994U 22125AG  22290.50001157 -.00003007  00000+0 -17001-4 0  9990
2 53994  53.2173  34.4810 0002095  36.9990 249.9488 15.73206418  2200
STARLINK-5097           
1 53995U 22125AH  22290.50001157  .00877240  00000+0  58575-2 0  9996
2 53995  53.2176  34.4840 0002137   7.6112 277.8872 15.72634177  2208
STARLINK-5131           
1 53996U 22125AJ  22290.16667824 -.00047634  00000+0 -33614-3 0  9994
2 53996  53.2183  36.1355 0001805  34.7395 163.8573 15.73250514  2158
STARLINK-5130           
1 53997U 22125AK  22290.16667824  .00031937  00000+0  23126-3 0  9999
2 53997  53.2194  36.1388 0001537  32.5680 164.2366 15.73183845  2159
STARLINK-5128           
1 53998U 22125AL  22290.16667824  .00007511  00000+0  57902-4 0  9991
2 53998  53.2178  36.1337 0001951  34.2233 165.5047 15.73193387  2151
STARLINK-5079           
1 53999U 22125AM  22290.50001157  .00232939  00000+0  16290-2 0  9998
2 53999  53.2177  34.4832 0002118  43.5981 242.8431 15.73048402  2200
STARLINK-5088           
1 54000U 22125AN  22290.50001157  .00005832  00000+0  45943-4 0  9991
2 54000  53.2174  34.4764 0001632  40.4280 248.9063 15.73201266  2200
STARLINK-5105           
1 54001U 22125AP  22290.50001157 -.00062981  00000+0 -44722-3 0  9995
2 54001  53.2195  34.4828 0001748  25.7420 264.2048 15.73222902  2197
STARLINK-5109           
1 54002U 22125AQ  22290.50001157 -.00086378  00000+0 -61485-3 0  9997
2 54002  53.2227  34.4439 0001786  32.7782 276.9389 15.73293458  2195
STARLINK-5114           
1 54003U 22125AR  22290.50001157  .00158956  00000+0  11210-2 0  9998
2 54003  53.2178  34.4799 0002075  38.3183 249.8962 15.73088019  2190
STARLINK-5129           
1 54004U 22125AS  22290.16667824  .00092198  00000+0  65559-3 0  9991
2 54004  53.2186  36.1272 0001952  24.7890 177.9489 15.73147590  2142
STARLINK-5135           
1 54005U 22125AT  22290.50001157  .00224079  00000+0  15685-2 0  9990
2 54005  53.2176  34.4747 0001917  33.6237 256.9869 15.73054119  2194
STARLINK-5096           
1 54006U 22125AU  22290.16667824  .00004528  00000+0  36683-4 0  9990
2 54006  53.2187  36.1226 0001551  34.2480 171.5755 15.73186711  2144
STARLINK-5132           
1 54007U 22125AV  22290.16667824  .00003194  00000+0  27154-4 0  9992
2 54007  53.2183  36.1267 0001501  37.8465 165.5441 15.73210620  2145
STARLINK-5145           
1 54008U 22125AW  22290.50001157 -.00543824  00000+0 -32526-2 0  9990
2 54008  53.2176  34.2934 0006195 274.3158 107.6710 15.78536654  2193
STARLINK-5099           
1 54009U 22125AX  22290.16667824  .00123074  00000+0  87015-3 0  9995
2 54009  53.2192  36.1234 0001835  32.5283 171.9559 15.73156157  2146
STARLINK-5127           
1 54010U 22125AY  22290.50001157  .00009017  00000+0  54953-4 0  9992
2 54010  53.2252  34.3419 0002480  16.0353 343.9953 15.78375195  2196
STARLINK-5124           
1 54011U 22125AZ  22290.50001157 -.00093198  00000+0 -66583-3 0  9999
2 54011  53.2188  34.4731 0001793  44.5399 248.3877 15.73239086  2191
STARLINK-5126           
1 54012U 22125BA  22289.91667824  .00038027  00000+0  27428-3 0  9995
2 54012  53.2192  37.3561 0001892  28.8139 202.6013 15.73186731  1302
STARLINK-5098           
1 54013U 22125BB  22290.50001157  .00228646  00000+0  16003-2 0  9998
2 54013  53.2182  34.4641 0002270  36.7423 259.2480 15.73042087  2193
STARLINK-5116           
1 54014U 22125BC  22290.16667824 -.00003008  00000+0 -17064-4 0  9995
2 54014  53.2191  36.1187 0001846  25.0301 182.7313 15.73140355  2149
STARLINK-5055           
1 54015U 22125BD  22290.50001157  .00261885  00000+0  18267-2 0  9996
2 54015  53.2177  34.4592 0001885  31.7871 266.5994 15.73020747  2197
